{"type": "FeatureCollection", "features": [ {"type": "Feature", "properties": {"norad_id": 67131, "name": "ZIYUAN 3-04 (ZY 3-04)", "group": "last-30-days", "lat": -51.74984522453035, "lon": -114.76517328696335, "alt_km": 508.97414909695726, "timestamp": "2025-12-26T19:22:37.609576+00:00", "meta": {"OBJECT_NAME": "ZIYUAN 3-04 (ZY 3-04)", "OBJECT_ID": "2025-300A", "EPOCH": "2025-12-21T18:22:34.187808", "MEAN_MOTION": 15.21179479, "ECCENTRICITY": 0.00027623, "INCLINATION": 97.4922, "RA_OF_ASC_NODE": 69.8294, "ARG_OF_PERICENTER": 167.6924, "MEAN_ANOMALY": 192.438, "EPHEMERIS_TYPE": 0, "CLASSIFICATION_TYPE": "U", "NORAD_CAT_ID": 67131, "ELEMENT_SET_NO": 999, "REV_AT_EPOCH": 86, "BSTAR": 6.5769783e-05, "MEAN_MOTION_DOT": 1.396e-05, "MEAN_MOTION_DDOT": 0}, "tle": {"line1": "1 67131U 25300A   25355.76567347  .00001396  00000+0  65770-4 0  9990", "line2": "2 67131  97.4922  69.8294 0002762 167.6924 192.4380 15.21179479   860"}}, "geometry": {"type": "Point", "coordinates": [-114.76517328696335, -51.74984522453035]}}, {"type": "Feature", "properties": {"norad_id": 67132, "name": "CZ-4B R/B", "group": "last-30-days", "lat": 40.69016826611026, "lon": 69.12259391840506, "alt_km": 315.5766348366087, "timestamp": "2025-12-26T19:22:37.609586+00:00", "meta": {"OBJECT_NAME": "CZ-4B R/B", "OBJECT_ID": "2025-300B", "EPOCH": "2025-12-18T16:13:04.609056", "MEAN_MOTION": 15.63831828, "ECCENTRICITY": 0.01741973, "INCLINATION": 97.5563, "RA_OF_ASC_NODE": 66.966, "ARG_OF_PERICENTER": 9.3582, "MEAN_ANOMALY": 351.0851, "EPHEMERIS_TYPE": 0, "CLASSIFICATION_TYPE": "U", "NORAD_CAT_ID": 67132, "ELEMENT_SET_NO": 999, "REV_AT_EPOCH": 40, "BSTAR": 0.00019566238, "MEAN_MOTION_DOT": 0.00040543, "MEAN_MOTION_DDOT": 2.652968e-06}, "tle": {"line1": "1 67132U 25300B   25352.67574779  .00040543  26530-5  19566-3 0  9995", "line2": "2 67132  97.5563  66.9660 0174197   9.3582 351.0851 15.63831828   407"}}, "geometry": {"type": "Point", "coordinates": [69.12259391840506, 40.69016826611026]}}, {"type": "Feature", "properties": {"norad_id": 67133, "name": "KUIPER-00144", "group": "last-30-days", "lat": -41.281296782429294, "lon": -79.10491505107446, "alt_km": 465.4142385946061, "timestamp": "2025-12-26T19:22:37.609597+00:00", "meta": {"OBJECT_NAME": "KUIPER-00144", "OBJECT_ID": "2025-301A", "EPOCH": "2025-12-26T12:06:06.293664", "MEAN_MOTION": 15.35470226, "ECCENTRICITY": 0.00061783, "INCLINATION": 51.871, "RA_OF_ASC_NODE": 58.7589, "ARG_OF_PERICENTER": 122.7409, "MEAN_ANOMALY": 237.4173, "EPHEMERIS_TYPE": 0, "CLASSIFICATION_TYPE": "U", "NORAD_CAT_ID": 67133, "ELEMENT_SET_NO": 999, "REV_AT_EPOCH": 248, "BSTAR": 0.0010059147, "MEAN_MOTION_DOT": 0.00034998, "MEAN_MOTION_DDOT": 0}, "tle": {"line1": "1 67133U 25301A   25360.50423951  .00034998  00000+0  10059-2 0  9995", "line2": "2 67133  51.8710  58.7589 0006178 122.7409 237.4173 15.35470226  2489"}}, "geometry": {"type": "Point", "coordinates": [-79.10491505107446, -41.281296782429294]}}, {"type": "Feature", "properties": {"norad_id": 67134, "name": "KUIPER-00164", "group": "last-30-days", "lat": -51.51680466218287, "lon": -41.64305005759235, "alt_km": 464.1000196779187, "timestamp": "2025-12-26T19:22:37.609607+00:00", "meta": {"OBJECT_NAME": "KUIPER-00164", "OBJECT_ID": "2025-301B", "EPOCH": "2025-12-26T13:32:48.333120", "MEAN_MOTION": 15.36165784, "ECCENTRICITY": 0.00032477, "INCLINATION": 51.8727, "RA_OF_ASC_NODE": 58.4118, "ARG_OF_PERICENTER": 104.671, "MEAN_ANOMALY": 255.4637, "EPHEMERIS_TYPE": 0, "CLASSIFICATION_TYPE": "U", "NORAD_CAT_ID": 67134, "ELEMENT_SET_NO": 999, "REV_AT_EPOCH": 267, "BSTAR": 0.0014331123, "MEAN_MOTION_DOT": 0.0005125, "MEAN_MOTION_DDOT": 0}, "tle": {"line1": "1 67134U 25301B   25360.56444830  .00051250  00000+0  14331-2 0  9998", "line2": "2 67134  51.8727  58.4118 0003247 104.6710 255.4637 15.36165784  2678"}}, "geometry": {"type": "Point", "coordinates": [-41.64305005759235, -51.51680466218287]}}, {"type": "Feature", "properties": {"norad_id": 67135, "name": "KUIPER-00175", "group": "last-30-days", "lat": -50.04481579942391, "lon": -12.436122447606774, "alt_km": 461.82523427927117, "timestamp": "2025-12-26T19:22:37.609617+00:00", "meta": {"OBJECT_NAME": "KUIPER-00175", "OBJECT_ID": "2025-301C", "EPOCH": "2025-12-26T15:01:44.676192", "MEAN_MOTION": 15.36621035, "ECCENTRICITY": 0.00022719, "INCLINATION": 51.8744, "RA_OF_ASC_NODE": 58.0692, "ARG_OF_PERICENTER": 59.7703, "MEAN_ANOMALY": 300.3508, "EPHEMERIS_TYPE": 0, "CLASSIFICATION_TYPE": "U", "NORAD_CAT_ID": 67135, "ELEMENT_SET_NO": 999, "REV_AT_EPOCH": 257, "BSTAR": 0.0008372221, "MEAN_MOTION_DOT": 0.00030136, "MEAN_MOTION_DDOT": 0}, "tle": {"line1": "1 67135U 25301C   25360.62621153  .00030136  00000+0  83722-3 0  9992", "line2": "2 67135  51.8744  58.0692 0002271  59.7703 300.3508 15.36621035  2571"}}, "geometry": {"type": "Point", "coordinates": [-12.436122447606774, -50.04481579942391]}}, {"type": "Feature", "properties": {"norad_id": 67136, "name": "KUIPER-00179", "group": "last-30-days", "lat": -51.82730462811461, "lon": -30.259791960963486, "alt_km": 463.79340165084704, "timestamp": "2025-12-26T19:22:37.609627+00:00", "meta": {"OBJECT_NAME": "KUIPER-00179", "OBJECT_ID": "2025-301D", "EPOCH": "2025-12-26T15:04:39.314784", "MEAN_MOTION": 15.36278992, "ECCENTRICITY": 0.00029894, "INCLINATION": 51.8739, "RA_OF_ASC_NODE": 58.0857, "ARG_OF_PERICENTER": 90.7518, "MEAN_ANOMALY": 269.3811, "EPHEMERIS_TYPE": 0, "CLASSIFICATION_TYPE": "U", "NORAD_CAT_ID": 67136, "ELEMENT_SET_NO": 999, "REV_AT_EPOCH": 268, "BSTAR": 0.00072103633, "MEAN_MOTION_DOT": 0.00025599, "MEAN_MOTION_DDOT": 0}, "tle": {"line1": "1 67136U 25301D   25360.62823281  .00025599  00000+0  72104-3 0  9998", "line2": "2 67136  51.8739  58.0857 0002989  90.7518 269.3811 15.36278992  2687"}}, "geometry": {"type": "Point", "coordinates": [-30.259791960963486, -51.82730462811461]}}, {"type": "Feature", "properties": {"norad_id": 67137, "name": "KUIPER-00181", "group": "last-30-days", "lat": -14.194574751170155, "lon": -111.16116823809908, "alt_km": 460.6613609783981, "timestamp": "2025-12-26T19:22:37.609639+00:00", "meta": {"OBJECT_NAME": "KUIPER-00181", "OBJECT_ID": "2025-301E", "EPOCH": "2025-12-26T15:23:31.520256", "MEAN_MOTION": 15.34461482, "ECCENTRICITY": 0.00100746, "INCLINATION": 51.8642, "RA_OF_ASC_NODE": 58.1763, "ARG_OF_PERICENTER": 145.3243, "MEAN_ANOMALY": 214.8401, "EPHEMERIS_TYPE": 0, "CLASSIFICATION_TYPE": "U", "NORAD_CAT_ID": 67137, "ELEMENT_SET_NO": 999, "REV_AT_EPOCH": 266, "BSTAR": 0.00087819153, "MEAN_MOTION_DOT": 0.00029538, "MEAN_MOTION_DDOT": 0}, "tle": {"line1": "1 67137U 25301E   25360.64133704  .00029538  00000+0  87819-3 0  9991", "line2": "2 67137  51.8642  58.1763 0010074 145.3243 214.8401 15.34461482  2668"}}, "geometry": {"type": "Point", "coordinates": [-111.16116823809908, -14.194574751170155]}}, {"type": "Feature", "properties": {"norad_id": 67138, "name": "KUIPER-00183", "group": "last-30-days", "lat": -4.275651526394995, "lon": -119.230694765606, "alt_km": 458.50117051099824, "timestamp": "2025-12-26T19:22:37.609651+00:00", "meta": {"OBJECT_NAME": "KUIPER-00183", "OBJECT_ID": "2025-301F", "EPOCH": "2025-12-26T12:19:10.562880", "MEAN_MOTION": 15.3411572, "ECCENTRICITY": 0.00112325, "INCLINATION": 51.8621, "RA_OF_ASC_NODE": 58.8175, "ARG_OF_PERICENTER": 149.2393, "MEAN_ANOMALY": 210.9252, "EPHEMERIS_TYPE": 0, "CLASSIFICATION_TYPE": "U", "NORAD_CAT_ID": 67138, "ELEMENT_SET_NO": 999, "REV_AT_EPOCH": 265, "BSTAR": 0.00095952654, "MEAN_MOTION_DOT": 0.00031976, "MEAN_MOTION_DDOT": 0}, "tle": {"line1": "1 67138U 25301F   25360.51331670  .00031976  00000+0  95953-3 0  9997", "line2": "2 67138  51.8621  58.8175 0011232 149.2393 210.9252 15.34115720  2657"}}, "geometry": {"type": "Point", "coordinates": [-119.230694765606, -4.275651526394995]}}, {"type": "Feature", "properties": {"norad_id": 67139, "name": "KUIPER-00184", "group": "last-30-days", "lat": -17.59606977781998, "lon": -108.204658111655, "alt_km": 462.02255379892904, "timestamp": "2025-12-26T19:22:37.609663+00:00", "meta": {"OBJECT_NAME": "KUIPER-00184", "OBJECT_ID": "2025-301G", "EPOCH": "2025-12-26T15:22:21.745344", "MEAN_MOTION": 15.34443698, "ECCENTRICITY": 0.00089903, "INCLINATION": 51.8629, "RA_OF_ASC_NODE": 58.1701, "ARG_OF_PERICENTER": 144.075, "MEAN_ANOMALY": 216.0841, "EPHEMERIS_TYPE": 0, "CLASSIFICATION_TYPE": "U", "NORAD_CAT_ID": 67139, "ELEMENT_SET_NO": 999, "REV_AT_EPOCH": 278, "BSTAR": 8.2316542e-05, "MEAN_MOTION_DOT": 2.409e-05, "MEAN_MOTION_DDOT": 0}, "tle": {"line1": "1 67139U 25301G   25360.64052946  .00002409  00000+0  82317-4 0  9998", "line2": "2 67139  51.8629  58.1701 0008990 144.0750 216.0841 15.34443698  2784"}}, "geometry": {"type": "Point", "coordinates": [-108.204658111655, -17.59606977781998]}}, {"type": "Feature", "properties": {"norad_id": 67140, "name": "KUIPER-00186", "group": "last-30-days", "lat": -31.6056638981036, "lon": -93.76595036812691, "alt_km": 464.40051854093963, "timestamp": "2025-12-26T19:22:37.609673+00:00", "meta": {"OBJECT_NAME": "KUIPER-00186", "OBJECT_ID": "2025-301H", "EPOCH": "2025-12-26T13:43:42.720672", "MEAN_MOTION": 15.35048245, "ECCENTRICITY": 0.00076155, "INCLINATION": 51.8689, "RA_OF_ASC_NODE": 58.463, "ARG_OF_PERICENTER": 132.2511, "MEAN_ANOMALY": 227.9122, "EPHEMERIS_TYPE": 0, "CLASSIFICATION_TYPE": "U", "NORAD_CAT_ID": 67140, "ELEMENT_SET_NO": 999, "REV_AT_EPOCH": 249, "BSTAR": 0.00093612405, "MEAN_MOTION_DOT": 0.00032101, "MEAN_MOTION_DDOT": 0}, "tle": {"line1": "1 67140U 25301H   25360.57202223  .00032101  00000+0  93612-3 0  9998", "line2": "2 67140  51.8689  58.4630 0007615 132.2511 227.9122 15.35048245  2494"}}, "geometry": {"type": "Point", "coordinates": [-93.76595036812691, -31.6056638981036]}}]}